IRIDIUM 112             
1 41925U 17003J   25245.96632112  .00000323  00000+0  10824-3 0  9995
2 41925  86.3993 208.2639 0002179  85.4528 274.6917 14.34217753452107
IRIDIUM 111             
1 41926U 17003K   25245.95363765 -.00000059  00000+0 -27971-4 0  9990
2 41926  86.3997 208.3336 0002193  88.5702 271.5745 14.34216611452085
IRIDIUM 113             
1 42803U 17039A   25245.93360094  .00000035  00000+0  55641-5 0  9992
2 42803  86.3912  82.2498 0001908  87.4357 272.7057 14.34217697430015
IRIDIUM 123             
1 42804U 17039B   25245.90531127 -.00000040  00000+0 -21503-4 0  9994
2 42804  86.3950 113.7588 0002139  94.0472 266.0968 14.34217317428773
IRIDIUM 120             
1 42805U 17039C   25245.92725347  .00000099  00000+0  28371-4 0  9998
2 42805  86.3902  82.0719 0002416  88.3153 271.8320 14.34217556430005
IRIDIUM 115             
1 42806U 17039D   25245.95024419  .00000244  00000+0  66500-4 0  9992
2 42806  86.4438  82.1517 0002592 101.8762 258.2730 14.43281248432836
IRIDIUM 118             
1 42807U 17039E   25245.86725544  .00000003  00000+0 -60529-5 0  9990
2 42807  86.3949 113.7740 0001781  84.3327 275.8072 14.34217461428760
IRIDIUM 117             
1 42808U 17039F   25245.88630395  .00000447  00000+0  15254-3 0  9996
2 42808  86.3950 113.7269 0002115  92.8421 267.3017 14.34217274428790
